[{"OBJECT_NAME":"ONEWEB-0255","OBJECT_ID":"2021-060G","EPOCH":"2025-08-14T11:20:19.038048","MEAN_MOTION":13.16592626,"ECCENTRICITY":0.0001887,"INCLINATION":87.9024,"RA_OF_ASC_NODE":289.9306,"ARG_OF_PERICENTER":88.9166,"MEAN_ANOMALY":271.2181,"EPHEMERIS_TYPE":0,"CLASSIFICATION_TYPE":"U","NORAD_CAT_ID":48973,"ELEMENT_SET_NO":999,"REV_AT_EPOCH":19930,"BSTAR":0.0002633,"MEAN_MOTION_DOT":1.14e-6,"MEAN_MOTION_DDOT":0},{"OBJECT_NAME":"ONEWEB-0256","OBJECT_ID":"2021-060H","EPOCH":"2025-08-14T10:08:30.182784","MEAN_MOTION":13.16593879,"ECCENTRICITY":0.0002142,"INCLINATION":87.9025,"RA_OF_ASC_NODE":289.9512,"ARG_OF_PERICENTER":97.7168,"MEAN_ANOMALY":262.4206,"EPHEMERIS_TYPE":0,"CLASSIFICATION_TYPE":"U","NORAD_CAT_ID":48974,"ELEMENT_SET_NO":999,"REV_AT_EPOCH":19926,"BSTAR":-3.304e-5,"MEAN_MOTION_DOT":0,"MEAN_MOTION_DDOT":0},{"OBJECT_NAME":"ONEWEB-0257","OBJECT_ID":"2021-060J","EPOCH":"2025-08-14T14:34:06.707712","MEAN_MOTION":13.16593022,"ECCENTRICITY":0.0002044,"INCLINATION":87.9027,"RA_OF_ASC_NODE":289.882,"ARG_OF_PERICENTER":90.6452,"MEAN_ANOMALY":269.4913,"EPHEMERIS_TYPE":0,"CLASSIFICATION_TYPE":"U","NORAD_CAT_ID":48975,"ELEMENT_SET_NO":999,"REV_AT_EPOCH":19924,"BSTAR":1.5705e-5,"MEAN_MOTION_DOT":1.9e-7,"MEAN_MOTION_DDOT":0},{"OBJECT_NAME":"ONEWEB-0258","OBJECT_ID":"2021-060K","EPOCH":"2025-08-14T05:29:13.682112","MEAN_MOTION":13.16594373,"ECCENTRICITY":0.0001933,"INCLINATION":87.9024,"RA_OF_ASC_NODE":289.9818,"ARG_OF_PERICENTER":97.3249,"MEAN_ANOMALY":262.8101,"EPHEMERIS_TYPE":0,"CLASSIFICATION_TYPE":"U","NORAD_CAT_ID":48976,"ELEMENT_SET_NO":999,"REV_AT_EPOCH":19920,"BSTAR":0.00023237,"MEAN_MOTION_DOT":1.02e-6,"MEAN_MOTION_DDOT":0},{"OBJECT_NAME":"ONEWEB-0259","OBJECT_ID":"2021-060L","EPOCH":"2025-08-14T14:27:16.282656","MEAN_MOTION":13.16593063,"ECCENTRICITY":0.0001885,"INCLINATION":87.903,"RA_OF_ASC_NODE":289.8921,"ARG_OF_PERICENTER":92.6068,"MEAN_ANOMALY":267.5278,"EPHEMERIS_TYPE":0,"CLASSIFICATION_TYPE":"U","NORAD_CAT_ID":48977,"ELEMENT_SET_NO":999,"REV_AT_EPOCH":19928,"BSTAR":-1.6831e-5,"MEAN_MOTION_DOT":6.0e-8,"MEAN_MOTION_DDOT":0},{"OBJECT_NAME":"ONEWEB-0260","OBJECT_ID":"2021-060M","EPOCH":"2025-08-14T10:35:51.888192","MEAN_MOTION":13.16593554,"ECCENTRICITY":0.0002536,"INCLINATION":87.9022,"RA_OF_ASC_NODE":289.9489,"ARG_OF_PERICENTER":95.0884,"MEAN_ANOMALY":265.0536,"EPHEMERIS_TYPE":0,"CLASSIFICATION_TYPE":"U","NORAD_CAT_ID":48978,"ELEMENT_SET_NO":999,"REV_AT_EPOCH":19924,"BSTAR":1.3531e-5,"MEAN_MOTION_DOT":1.8e-7,"MEAN_MOTION_DDOT":0},{"OBJECT_NAME":"ONEWEB-0261","OBJECT_ID":"2021-060N","EPOCH":"2025-08-14T09:52:32.101824","MEAN_MOTION":13.16596004,"ECCENTRICITY":0.0002155,"INCLINATION":87.9024,"RA_OF_ASC_NODE":289.9566,"ARG_OF_PERICENTER":84.5201,"MEAN_ANOMALY":275.6176,"EPHEMERIS_TYPE":0,"CLASSIFICATION_TYPE":"U","NORAD_CAT_ID":48979,"ELEMENT_SET_NO":999,"REV_AT_EPOCH":19929,"BSTAR":0.00014679,"MEAN_MOTION_DOT":6.9e-7,"MEAN_MOTION_DDOT":0},{"OBJECT_NAME":"ONEWEB-0262","OBJECT_ID":"2021-060P","EPOCH":"2025-08-14T11:13:30.163008","MEAN_MOTION":13.1659435,"ECCENTRICITY":0.0001707,"INCLINATION":87.9028,"RA_OF_ASC_NODE":289.908,"ARG_OF_PERICENTER":91.3006,"MEAN_ANOMALY":268.8321,"EPHEMERIS_TYPE":0,"CLASSIFICATION_TYPE":"U","NORAD_CAT_ID":48980,"ELEMENT_SET_NO":999,"REV_AT_EPOCH":19926,"BSTAR":0.00022163,"MEAN_MOTION_DOT":9.8e-7,"MEAN_MOTION_DDOT":0},{"OBJECT_NAME":"ONEWEB-0263","OBJECT_ID":"2021-060Q","EPOCH":"2025-08-14T11:59:05.563680","MEAN_MOTION":13.16595609,"ECCENTRICITY":0.0001934,"INCLINATION":87.9025,"RA_OF_ASC_NODE":289.9249,"ARG_OF_PERICENTER":82.6666,"MEAN_ANOMALY":277.4685,"EPHEMERIS_TYPE":0,"CLASSIFICATION_TYPE":"U","NORAD_CAT_ID":48981,"ELEMENT_SET_NO":999,"REV_AT_EPOCH":19923,"BSTAR":-0.00014389,"MEAN_MOTION_DOT":-4.2e-7,"MEAN_MOTION_DDOT":0},{"OBJECT_NAME":"ONEWEB-0264","OBJECT_ID":"2021-060R","EPOCH":"2025-08-14T11:03:13.949568","MEAN_MOTION":13.16593445,"ECCENTRICITY":0.0002019,"INCLINATION":87.9023,"RA_OF_ASC_NODE":289.9379,"ARG_OF_PERICENTER":93.1913,"MEAN_ANOMALY":266.9448,"EPHEMERIS_TYPE":0,"CLASSIFICATION_TYPE":"U","NORAD_CAT_ID":48982,"ELEMENT_SET_NO":999,"REV_AT_EPOCH":19923,"BSTAR":0.00027803,"MEAN_MOTION_DOT":1.19e-6,"MEAN_MOTION_DDOT":0},{"OBJECT_NAME":"ONEWEB-0266","OBJECT_ID":"2021-060T","EPOCH":"2025-08-14T11:34:00.611328","MEAN_MOTION":13.16594431,"ECCENTRICITY":0.0001843,"INCLINATION":87.9029,"RA_OF_ASC_NODE":289.9092,"ARG_OF_PERICENTER":99.2297,"MEAN_ANOMALY":260.9043,"EPHEMERIS_TYPE":0,"CLASSIFICATION_TYPE":"U","NORAD_CAT_ID":48984,"ELEMENT_SET_NO":999,"REV_AT_EPOCH":19922,"BSTAR":0.00021703,"MEAN_MOTION_DOT":9.6e-7,"MEAN_MOTION_DDOT":0},{"OBJECT_NAME":"ONEWEB-0267","OBJECT_ID":"2021-060U","EPOCH":"2025-08-14T10:00:31.719456","MEAN_MOTION":13.16595767,"ECCENTRICITY":0.0002073,"INCLINATION":87.903,"RA_OF_ASC_NODE":289.9244,"ARG_OF_PERICENTER":88.371,"MEAN_ANOMALY":271.7658,"EPHEMERIS_TYPE":0,"CLASSIFICATION_TYPE":"U","NORAD_CAT_ID":48985,"ELEMENT_SET_NO":999,"REV_AT_EPOCH":19922,"BSTAR":9.0698e-5,"MEAN_MOTION_DOT":4.8e-7,"MEAN_MOTION_DDOT":0},{"OBJECT_NAME":"ONEWEB-0268","OBJECT_ID":"2021-060V","EPOCH":"2025-08-14T11:04:21.326016","MEAN_MOTION":13.16593204,"ECCENTRICITY":0.0002134,"INCLINATION":87.9028,"RA_OF_ASC_NODE":289.9216,"ARG_OF_PERICENTER":95.6931,"MEAN_ANOMALY":264.4443,"EPHEMERIS_TYPE":0,"CLASSIFICATION_TYPE":"U","NORAD_CAT_ID":48986,"ELEMENT_SET_NO":999,"REV_AT_EPOCH":19949,"BSTAR":0.00021054,"MEAN_MOTION_DOT":9.3e-7,"MEAN_MOTION_DDOT":0},{"OBJECT_NAME":"ONEWEB-0269","OBJECT_ID":"2021-060W","EPOCH":"2025-08-14T10:36:58.491360","MEAN_MOTION":13.1659226,"ECCENTRICITY":0.0002076,"INCLINATION":87.9024,"RA_OF_ASC_NODE":289.9575,"ARG_OF_PERICENTER":100.2478,"MEAN_ANOMALY":259.8888,"EPHEMERIS_TYPE":0,"CLASSIFICATION_TYPE":"U","NORAD_CAT_ID":48987,"ELEMENT_SET_NO":999,"REV_AT_EPOCH":19926,"BSTAR":-4.3834e-5,"MEAN_MOTION_DOT":-4.0e-8,"MEAN_MOTION_DDOT":0},{"OBJECT_NAME":"ONEWEB-0270","OBJECT_ID":"2021-060X","EPOCH":"2025-08-14T11:02:04.688736","MEAN_MOTION":13.1659346,"ECCENTRICITY":0.000186,"INCLINATION":87.9025,"RA_OF_ASC_NODE":289.924,"ARG_OF_PERICENTER":83.6437,"MEAN_ANOMALY":276.4905,"EPHEMERIS_TYPE":0,"CLASSIFICATION_TYPE":"U","NORAD_CAT_ID":48988,"ELEMENT_SET_NO":999,"REV_AT_EPOCH":19930,"BSTAR":0.00010112,"MEAN_MOTION_DOT":5.2e-7,"MEAN_MOTION_DDOT":0},{"OBJECT_NAME":"ONEWEB-0271","OBJECT_ID":"2021-060Y","EPOCH":"2025-08-14T10:43:50.915712","MEAN_MOTION":13.16594498,"ECCENTRICITY":0.0002048,"INCLINATION":87.9028,"RA_OF_ASC_NODE":289.9102,"ARG_OF_PERICENTER":88.3191,"MEAN_ANOMALY":271.8174,"EPHEMERIS_TYPE":0,"CLASSIFICATION_TYPE":"U","NORAD_CAT_ID":48989,"ELEMENT_SET_NO":999,"REV_AT_EPOCH":19930,"BSTAR":2.953e-5,"MEAN_MOTION_DOT":2.4e-7,"MEAN_MOTION_DDOT":0},{"OBJECT_NAME":"ONEWEB-0272","OBJECT_ID":"2021-060Z","EPOCH":"2025-08-14T11:15:45.823104","MEAN_MOTION":13.16601951,"ECCENTRICITY":0.0002226,"INCLINATION":87.9024,"RA_OF_ASC_NODE":289.9353,"ARG_OF_PERICENTER":90.3315,"MEAN_ANOMALY":269.8071,"EPHEMERIS_TYPE":0,"CLASSIFICATION_TYPE":"U","NORAD_CAT_ID":48990,"ELEMENT_SET_NO":999,"REV_AT_EPOCH":19925,"BSTAR":0.0046366,"MEAN_MOTION_DOT":1.786e-5,"MEAN_MOTION_DDOT":0}]
