ONEWEB-0255             
1 48973U 21060G   25226.47244257  .00000114  00000+0  26330-3 0  9994
2 48973  87.9024 289.9306 0001887  88.9166 271.2181 13.16592626199307
ONEWEB-0256             
1 48974U 21060H   25226.42257156  .00000000  00000+0 -33040-4 0  9994
2 48974  87.9025 289.9512 0002142  97.7168 262.4206 13.16593879199269
ONEWEB-0257             
1 48975U 21060J   25226.60702208  .00000019  00000+0  15705-4 0  9995
2 48975  87.9027 289.8820 0002044  90.6452 269.4913 13.16593022199242
ONEWEB-0258             
1 48976U 21060K   25226.22863058  .00000102  00000+0  23237-3 0  9996
2 48976  87.9024 289.9818 0001933  97.3249 262.8101 13.16594373199204
ONEWEB-0259             
1 48977U 21060L   25226.60227179  .00000006  00000+0 -16831-4 0  9994
2 48977  87.9030 289.8921 0001885  92.6068 267.5278 13.16593063199289
ONEWEB-0260             
1 48978U 21060M   25226.44157278  .00000018  00000+0  13531-4 0  9995
2 48978  87.9022 289.9489 0002536  95.0884 265.0536 13.16593554199249
ONEWEB-0261             
1 48979U 21060N   25226.41148266  .00000069  00000+0  14679-3 0  9999
2 48979  87.9024 289.9566 0002155  84.5201 275.6176 13.16596004199296
ONEWEB-0262             
1 48980U 21060P   25226.46771022  .00000098  00000+0  22163-3 0  9997
2 48980  87.9028 289.9080 0001707  91.3006 268.8321 13.16594350199269
ONEWEB-0263             
1 48981U 21060Q   25226.49936995 -.00000042  00000+0 -14389-3 0  9995
2 48981  87.9025 289.9249 0001934  82.6666 277.4685 13.16595609199235
ONEWEB-0264             
1 48982U 21060R   25226.46057812  .00000119  00000+0  27803-3 0  9993
2 48982  87.9023 289.9379 0002019  93.1913 266.9448 13.16593445199231
ONEWEB-0266             
1 48984U 21060T   25226.48195152  .00000096  00000+0  21703-3 0  9994
2 48984  87.9029 289.9092 0001843  99.2297 260.9043 13.16594431199227
ONEWEB-0267             
1 48985U 21060U   25226.41703379  .00000048  00000+0  90698-4 0  9991
2 48985  87.9030 289.9244 0002073  88.3710 271.7658 13.16595767199229
ONEWEB-0268             
1 48986U 21060V   25226.46135794  .00000093  00000+0  21054-3 0  9996
2 48986  87.9028 289.9216 0002134  95.6931 264.4443 13.16593204199494
ONEWEB-0269             
1 48987U 21060W   25226.44234365 -.00000004  00000+0 -43834-4 0  9994
2 48987  87.9024 289.9575 0002076 100.2478 259.8888 13.16592260199260
ONEWEB-0270             
1 48988U 21060X   25226.45977649  .00000052  00000+0  10112-3 0  9998
2 48988  87.9025 289.9240 0001860  83.6437 276.4905 13.16593460199303
ONEWEB-0271             
1 48989U 21060Y   25226.44711708  .00000024  00000+0  29530-4 0  9994
2 48989  87.9028 289.9102 0002048  88.3191 271.8174 13.16594498199301
ONEWEB-0272             
1 48990U 21060Z   25226.46928036  .00001786  00000+0  46366-2 0  9992
2 48990  87.9024 289.9353 0002226  90.3315 269.8071 13.16601951199256
